[{"OBJECT_NAME":"TIANMU-1 09","OBJECT_ID":"2023-101C","EPOCH":"2026-03-09T22:17:34.703232","MEAN_MOTION":15.29080822,"ECCENTRICITY":0.00049013,"INCLINATION":97.267,"RA_OF_ASC_NODE":121.1263,"ARG_OF_PERICENTER":139.4293,"MEAN_ANOMALY":220.7314,"EPHEMERIS_TYPE":0,"CLASSIFICATION_TYPE":"U","NORAD_CAT_ID":57401,"ELEMENT_SET_NO":999,"REV_AT_EPOCH":14647,"BSTAR":0.00030540035,"MEAN_MOTION_DOT":8.553e-5,"MEAN_MOTION_DDOT":0},{"OBJECT_NAME":"STARLINK-35894","OBJECT_ID":"2025-263R","EPOCH":"2026-03-09T03:06:26.613216","MEAN_MOTION":15.27600519,"ECCENTRICITY":0.00019745,"INCLINATION":43.0052,"RA_OF_ASC_NODE":357.2906,"ARG_OF_PERICENTER":261.2199,"MEAN_ANOMALY":98.843,"EPHEMERIS_TYPE":0,"CLASSIFICATION_TYPE":"U","NORAD_CAT_ID":66500,"ELEMENT_SET_NO":999,"REV_AT_EPOCH":1877,"BSTAR":0.0011503418,"MEAN_MOTION_DOT":0.00031549,"MEAN_MOTION_DDOT":0}]
